1 00734U 64002B   23291.14550357  .00000222  00000-0  10615-3 0  9995
2 00734  99.0144 175.4597 0015316 127.6074 232.6499 14.29122368109759
1   734U 64002B   23291.63559108  .00000232  00000-0  10994-3 0  9993
2   734  99.0143 175.9665 0015329 126.2579 234.0020 14.29122689109918
1 00734U 64002B   23291.91564100  .00000242  00000-0  11391-3 0  9995
2 00734  99.0143 176.2560 0015342 125.4845 234.7769 14.29122912109868
1 00734U 64002B   23292.26570342  .00000245  00000-0  11510-3 0  9995
2 00734  99.0143 176.6179 0015356 124.5128 235.7505 14.29123129109913
1   734U 64002B   23293.17586545  .00000222  00000-0  10608-3 0  9990
2   734  99.0142 177.5589 0015390 122.0019 238.2659 14.29123497110139
1 00734U 64002B   23293.31589033  .00000225  00000-0  10730-3 0  9990
2 00734  99.0141 177.7037 0015395 121.6094 238.6591 14.29123581110066
1 00734U 64002B   23294.43608921  .00000223  00000-0  10638-3 0  9997
2 00734  99.0140 178.8618 0015429 118.5478 241.7258 14.29124148110224
1   734U 64002B   23294.43608921  .00000223  00000-0  10638-3 0  9997
2   734  99.0140 178.8618 0015429 118.5478 241.7258 14.29124148110314
1 00734U 64002B   23294.92617602  .00000190  00000-0  93515-4 0  9996
2 00734  99.0139 179.3685 0015431 117.2272 243.0483 14.29124243110291
1 00734U 64002B   23295.62629992  .00000171  00000-0  86028-4 0  9999
2 00734  99.0138 180.0923 0015453 115.3125 244.9658 14.29124510110396
1   734U 64002B   23295.69631230  .00000171  00000-0  85751-4 0  9996
2   734  99.0138 180.1647 0015454 115.1303 245.1482 14.29124543110492
1 00734U 64002B   23295.90634936  .00000197  00000-0  96097-4 0  9999
2 00734  99.0138 180.3818 0015462 114.5499 245.7295 14.29124799110437
1 00734U 64002B   23296.95653479  .00000175  00000-0  87657-4 0  9996
2 00734  99.0137 181.4675 0015485 111.6824 248.6008 14.29125177110585
1   734U 64002B   23297.16657183  .00000168  00000-0  84832-4 0  9990
2   734  99.0136 181.6847 0015493 111.1059 249.1780 14.29125254110704
1 00734U 64002B   23297.44662119  .00000164  00000-0  83088-4 0  9994
2 00734  99.0136 181.9742 0015495 110.3597 249.9250 14.29125334110654
1 00734U 64002B   23297.65665821  .00000154  00000-0  79212-4 0  9993
2 00734  99.0136 182.1913 0015498 109.7828 250.5025 14.29125383110684
1 00734U 64002B   23298.63683073  .00000139  00000-0  73164-4 0  9994
2 00734  99.0135 183.2046 0015521 107.1136 253.1746 14.29125731110825
1   734U 64002B   23298.63683073  .00000139  00000-0  73164-4 0  9994
2   734  99.0135 183.2046 0015521 107.1136 253.1746 14.29125731110915
1 00734U 64002B   23299.61700283  .00000141  00000-0  74235-4 0  9999
2 00734  99.0133 184.2179 0015539 104.4566 255.8340 14.29126158110965
1 00734U 64002B   23299.68701511  .00000141  00000-0  74211-4 0  9995
2 00734  99.0133 184.2903 0015540 104.2654 256.0253 14.29126189110979
1   734U 64002B   23300.17710095  .00000175  00000-0  87661-4 0  9999
2   734  99.0133 184.7969 0015552 102.9305 257.3613 14.29126596111132
1 00734U 64002B   23300.38713772  .00000178  00000-0  88706-4 0  9991
2 00734  99.0133 185.0141 0015559 102.3490 257.9434 14.29126684111072
1 00734U 64002B   23300.94723574  .00000172  00000-0  86252-4 0  9992
2 00734  99.0132 185.5931 0015564 100.8369 259.4564 14.29126884111159
1   734U 64002B   23301.29729697  .00000183  00000-0  90526-4 0  9994
2   734  99.0132 185.9550 0015577  99.8765 260.4175 14.29127091111297
1 00734U 64002B   23301.57734581  .00000195  00000-0  95368-4 0  9995
2 00734  99.0132 186.2445 0015580  99.1202 261.1742 14.29127300111243
1 00734U 64002B   23301.92740682  .00000207  00000-0  10000-3 0  9996
2 00734  99.0132 186.6064 0015580  98.1873 262.1075 14.29127537111294
1   734U 64002B   23302.41749221  .00000229  00000-0  10874-3 0  9992
2   734  99.0131 187.1130 0015587  96.8634 263.4321 14.29127885111452
1 00734U 64002B   23302.62752876  .00000225  00000-0  10705-3 0  9994
2 00734  99.0130 187.3301 0015585  96.2941 264.0015 14.29127979111390
1 00734U 64002B   23303.95775979  .00000235  00000-0  11121-3 0  9994
2 00734  99.0129 188.7052 0015608  92.6986 267.5981 14.29128723111580
1   734U 64002B   23304.16779626  .00000219  00000-0  10498-3 0  9999
2   734  99.0129 188.9223 0015611  92.1330 268.1638 14.29128750111704
1 00734U 64002B   23304.58786905  .00000213  00000-0  10229-3 0  9999
2 00734  99.0129 189.3567 0015598  91.0045 269.2923 14.29128905111672
1 00734U 64002B   23304.93792955  .00000216  00000-0  10367-3 0  9996
2 00734  99.0128 189.7185 0015586  90.0821 270.2146 14.29129132111727
1   734U 64002B   23305.42801424  .00000213  00000-0  10242-3 0  9992
2   734  99.0128 190.2251 0015586  88.7582 271.5384 14.29129390111887
1 00734U 64002B   23305.56803842  .00000194  00000-0  95129-4 0  9999
2 00734  99.0128 190.3699 0015585  88.3764 271.9202 14.29129379111814
1 00734U 64002B   23305.91809875  .00000199  00000-0  96841-4 0  9997
2 00734  99.0127 190.7318 0015582  87.4368 272.8596 14.29129617111868
1   734U 64002B   23306.54820730  .00000199  00000-0  97135-4 0  9997
2   734  99.0126 191.3831 0015580  85.7301 274.5660 14.29129981112046
1 00734U 64002B   23306.61821938  .00000196  00000-0  95843-4 0  9997
2 00734  99.0126 191.4555 0015582  85.5423 274.7537 14.29130002111966
1 00734U 64002B   23306.96827964  .00000190  00000-0  93595-4 0  9996
2 00734  99.0126 191.8173 0015587  84.5920 275.7038 14.29130149112018
1 00734U 64002B   23307.59838789  .00000214  00000-0  10277-3 0  9995
2 00734  99.0125 192.4687 0015587  82.8950 277.4002 14.29130627112109
1   734U 64002B   23307.66839989  .00000214  00000-0  10290-3 0  9991
2   734  99.0125 192.5410 0015585  82.7048 277.5904 14.29130675112205
1 00734U 64002B   23307.94844802  .00000209  00000-0  10083-3 0  9996
2 00734  99.0125 192.8305 0015594  81.9403 278.3546 14.29130776112154
1 00734U 64002B   23308.57855604  .00000216  00000-0  10377-3 0  9992
2 00734  99.0124 193.4819 0015583  80.2454 280.0485 14.29131155112240
1 00734U 64002B   23308.92861588  .00000229  00000-0  10874-3 0  9995
2 00734  99.0124 193.8437 0015584  79.2879 281.0055 14.29131440112296
1   734U 64002B   23309.13865171  .00000270  00000-0  12484-3 0  9996
2   734  99.0124 194.0608 0015583  78.7245 281.5685 14.29131816112414
1 00734U 64002B   23309.55872350  .00000248  00000-0  11607-3 0  9990
2 00734  99.0123 194.4950 0015577  77.5844 282.7079 14.29131906112388
1 00734U 64002B   23309.62873545  .00000247  00000-0  11571-3 0  9994
2 00734  99.0123 194.5674 0015577  77.3942 282.8980 14.29131945112395
1   734U 64002B   23310.39886589  .00000366  00000-0  16262-3 0  9996
2   734  99.0123 195.3635 0015576  75.3103 284.9803 14.29133264112592
1 00734U 64002B   23310.60890159  .00000369  00000-0  16397-3 0  9990
2 00734  99.0123 195.5805 0015575  74.7329 285.5572 14.29133425112538
1 00734U 64002B   23310.95896100  .00000370  00000-0  16443-3 0  9994
2 00734  99.0123 195.9424 0015569  73.7771 286.5121 14.29133664112583
1 00734U 64002B   23311.58906771  .00000323  00000-0  14565-3 0  9991
2 00734  99.0122 196.5937 0015561  72.0666 288.2209 14.29133870112670
1   734U 64002B   23311.65907951  .00000324  00000-0  14626-3 0  9999
2   734  99.0122 196.6661 0015559  71.8723 288.4151 14.29133947112777
1 00734U 64002B   23312.56923309  .00000309  00000-0  14033-3 0  9990
2 00734  99.0122 197.6068 0015543  69.4111 290.8735 14.29134579112818
1 00734U 64002B   23312.91929201  .00000302  00000-0  13753-3 0  9997
2 00734  99.0122 197.9686 0015539  68.4629 291.8206 14.29134821112864
1   734U 64002B   23313.12932730  .00000298  00000-0  13603-3 0  9990
2   734  99.0121 198.1857 0015534  67.8984 292.3844 14.29134996112988
1 00734U 64002B   23313.54939791  .00000280  00000-0  12873-3 0  9999
2 00734  99.0121 198.6199 0015521  66.7454 293.5359 14.29135200112958
1 00734U 64002B   23313.68942141  .00000274  00000-0  12660-3 0  9994
2 00734  99.0121 198.7647 0015516  66.3525 293.9283 14.29135286112972
1   734U 64002B   23314.17950359  .00000259  00000-0  12048-3 0  9992
2   734  99.0121 199.2712 0015507  65.0279 295.2511 14.29135587113135
1 00734U 64002B   23314.59957393  .00000267  00000-0  12384-3 0  9995
2 00734  99.0121 199.7054 0015495  63.8705 296.4067 14.29135937113100
1 00734U 64002B   23314.66958566  .00000264  00000-0  12266-3 0  9992
2 00734  99.0121 199.7778 0015495  63.6811 296.5959 14.29135974113112
1   734U 64002B   23315.29969113  .00000238  00000-0  11218-3 0  9999
2   734  99.0120 200.4291 0015481  61.9639 298.3106 14.29136248113293
1 00734U 64002B   23315.57973791  .00000228  00000-0  10832-3 0  9997
2 00734  99.0120 200.7185 0015475  61.1950 299.0782 14.29136385113244
1 00734U 64002B   23315.92979639  .00000184  00000-0  90859-4 0  9992
2 00734  99.0120 201.0804 0015467  60.2552 300.0165 14.29136361113292
1   734U 64002B   23316.41987816  .00000192  00000-0  94161-4 0  9992
2   734  99.0119 201.5869 0015448  58.9263 301.3432 14.29136684113455
1 00734U 64002B   23316.55990145  .00000203  00000-0  98419-4 0  9999
2 00734  99.0119 201.7316 0015444  58.5375 301.7313 14.29136841113389
1 00734U 64002B   23316.62991314  .00000200  00000-0  97532-4 0  9998
2 00734  99.0119 201.8040 0015447  58.3495 301.9191 14.29136866113392
1 00734U 64002B   23317.54006485  .00000174  00000-0  87254-4 0  9996
2 00734  99.0119 202.7448 0015436  55.8365 304.4277 14.29137128113520
1   734U 64002B   23317.54006485  .00000174  00000-0  87254-4 0  9996
2   734  99.0119 202.7448 0015436  55.8365 304.4277 14.29137128113610
1 00734U 64002B   23318.45021612  .00000164  00000-0  83220-4 0  9994
2 00734  99.0119 203.6856 0015416  53.3568 306.9028 14.29137492113658
1   734U 64002B   23319.29035549  .00000161  00000-0  81931-4 0  9995
2   734  99.0118 204.5540 0015395  51.0493 309.2057 14.29137876113862
1 00734U 64002B   23319.57040191  .00000161  00000-0  81851-4 0  9996
2 00734  99.0118 204.8435 0015387  50.2885 309.9649 14.29137993113814
1 00734U 64002B   23320.62057561  .00000142  00000-0  74697-4 0  9992
2 00734  99.0117 205.9289 0015356  47.4051 312.8422 14.29138379113968
